OBJECT_NAME,OBJECT_ID,EPOCH,MEAN_MOTION,ECCENTRICITY,INCLINATION,RA_OF_ASC_NODE,ARG_OF_PERICENTER,MEAN_ANOMALY,EPHEMERIS_TYPE,CLASSIFICATION_TYPE,NORAD_CAT_ID,ELEMENT_SET_NO,REV_AT_EPOCH,BSTAR,MEAN_MOTION_DOT,MEAN_MOTION_DDOT
ONEWEB-0572,2023-004M,2026-07-10T10:50:58.469568,13.17650940,.00020169,87.9136,1.2365,92.3467,267.7896,0,U,55151,999,17054,.1508222E-3,.71E-6,0
ONEWEB-0573,2023-004N,2026-07-09T15:36:24.575616,13.18687007,.0002727,87.9180,331.0011,100.7847,259.3592,0,U,55152,999,17265,-.17718814E-3,-.57E-6,0
ONEWEB-0588,2023-004P,2026-07-09T15:26:43.110528,13.18686933,.00022303,87.9179,331.0018,86.8229,273.3158,0,U,55153,999,17265,.13385095E-3,.66E-6,0
ONEWEB-0598,2023-004Q,2026-07-09T12:21:55.272384,13.11415117,.00024108,87.8879,16.6221,102.2282,257.9116,0,U,55154,999,16882,.12191278E-2,.445E-5,0
ONEWEB-0599,2023-004R,2026-07-09T12:02:53.662272,13.17650444,.00017954,87.9132,1.4242,98.5293,261.6042,0,U,55155,999,17042,.39123934E-4,.28E-6,0
ONEWEB-0614,2023-004S,2026-07-09T23:13:47.957088,13.11416293,.00018358,87.8875,16.5402,82.3850,277.7486,0,U,55156,999,16882,.15412269E-2,.559E-5,0
ONEWEB-0616,2023-004T,2026-07-10T10:55:49.175328,13.17650400,.00015306,87.9139,1.2384,122.0537,238.0743,0,U,55157,999,17076,.13451098E-3,.65E-6,0
ONEWEB-0617,2023-004U,2026-07-09T22:56:42.152352,13.11419054,.00020583,87.8881,16.5354,76.0790,284.0566,0,U,55158,999,16884,.99783241E-3,.366E-5,0
ONEWEB-0618,2023-004V,2026-07-09T16:11:37.006368,15.13343997,.00113451,86.9101,168.5034,195.9411,164.1474,0,U,55159,999,18566,.18904315E-3,.3405E-4,0
ONEWEB-0619,2023-004W,2026-07-09T12:00:27.992736,13.17650386,.00014752,87.9144,1.4110,83.0001,277.1298,0,U,55160,999,17053,-.80968228E-4,-.19E-6,0
ONEWEB-0620,2023-004X,2026-07-09T11:50:10.338144,13.11418406,.00021099,87.8875,16.6343,91.1503,268.9867,0,U,55161,999,16875,.68405968E-3,.255E-5,0
ONEWEB-0621,2023-004Y,2026-07-09T23:28:26.799744,13.11414664,.00017726,87.8884,16.5290,81.3578,278.7750,0,U,55162,999,16879,.86946625E-3,.321E-5,0
ONEWEB-0622,2023-004Z,2026-07-09T23:35:46.189536,13.11414584,.00023292,87.8885,16.5308,74.6175,285.5210,0,U,55163,999,16878,.34659649E-3,.136E-5,0
ONEWEB-0623,2023-004AA,2026-07-10T09:45:20.847456,13.17648347,.00018338,87.9131,1.2586,66.2738,293.8585,0,U,55164,999,17064,.23896406E-3,.106E-5,0
ONEWEB-0624,2023-004AB,2026-07-09T08:55:15.265344,13.12928257,.00017906,87.8960,346.1696,90.8806,269.2528,0,U,55165,999,17098,-.43835549E-3,-.146E-5,0
ONEWEB-0625,2023-004AC,2026-07-10T11:20:07.113984,13.17650416,.00017339,87.9136,1.2416,94.7188,265.4141,0,U,55166,999,17064,.80501805E-4,.44E-6,0
ONEWEB-0626,2023-004AD,2026-07-09T16:52:05.103840,13.17650516,.00020598,87.9131,1.3945,96.3665,263.7702,0,U,55167,999,17054,.86127296E-4,.46E-6,0
ONEWEB-0627,2023-004AE,2026-07-10T10:48:32.103648,13.17648052,.00018205,87.9137,1.2458,76.4817,283.6517,0,U,55168,999,17064,.1531956E-4,.19E-6,0
ONEWEB-0628,2023-004AF,2026-07-09T08:40:19.255872,13.12441889,.00016649,87.8962,346.2436,74.3322,285.7990,0,U,55169,999,17094,.47665202E-3,.184E-5,0
ONEWEB-0629,2023-004AG,2026-07-10T10:13:18.255936,13.17649495,.00015687,87.9135,1.2465,87.0144,273.1167,0,U,55170,999,17064,.84601318E-4,.46E-6,0
ONEWEB-0631,2023-004AH,2026-07-10T07:40:22.005696,13.18686612,.00023654,87.9192,330.8355,92.0607,268.0796,0,U,55171,999,17272,.13324767E-4,.18E-6,0
ONEWEB-0709,2023-004AJ,2026-07-09T11:35:31.215552,13.11417922,.00025448,87.8875,16.6387,103.0814,257.0598,0,U,55172,999,16879,-.61140483E-3,-.204E-5,0
ONEWEB-0710,2023-004AK,2026-07-09T18:09:49.019040,13.17647297,.00019043,87.9136,1.3750,87.2591,272.8758,0,U,55173,999,17055,.53044806E-4,.33E-6,0
ONEWEB-0711,2023-004AL,2026-07-10T10:42:17.681472,13.11414386,.0001985,87.8867,16.4355,69.2301,290.9040,0,U,55174,999,16888,.11919334E-3,.55E-6,0
ONEWEB-0713,2023-004AM,2026-07-10T11:09:08.615520,13.11416151,.0001973,87.8880,16.4332,78.0141,282.1208,0,U,55175,999,16887,-.15084667E-2,-.522E-5,0
ONEWEB-0715,2023-004AN,2026-07-10T11:01:49.105632,13.11415350,.00024676,87.8878,16.4338,94.1665,265.9745,0,U,55176,999,16891,-.13626794E-2,-.47E-5,0
ONEWEB-0716,2023-004AP,2026-07-10T10:24:13.725216,13.17647567,.00017268,87.9134,1.2430,97.8063,262.3265,0,U,55177,999,17064,.18217095E-3,.84E-6,0
ONEWEB-0717,2023-004AQ,2026-07-09T17:35:48.321888,13.17649725,.00022001,87.9145,1.3723,78.5045,281.6333,0,U,55178,999,17060,-.12726766E-3,-.37E-6,0
ONEWEB-0719,2023-004AR,2026-07-10T10:14:30.621120,13.17650420,.00016591,87.9146,1.2147,93.2731,266.8590,0,U,55179,999,17064,.74792369E-4,.42E-6,0
ONEWEB-0530,2023-029A,2026-07-10T04:41:52.622880,13.20772608,.00019236,87.9180,269.8821,87.5794,272.5559,0,U,55796,999,16418,.14782479E-4,.19E-6,0
